[{"OBJECT_NAME":"STARLINK-6166","OBJECT_ID":"2023-061K","EPOCH":"2026-03-09T22:00:01.999584","MEAN_MOTION":15.13484228,"ECCENTRICITY":0.00023094,"INCLINATION":42.9998,"RA_OF_ASC_NODE":195.708,"ARG_OF_PERICENTER":284.6312,"MEAN_ANOMALY":123.1748,"EPHEMERIS_TYPE":0,"CLASSIFICATION_TYPE":"U","NORAD_CAT_ID":56383,"ELEMENT_SET_NO":999,"REV_AT_EPOCH":572,"BSTAR":0.0043761353,"MEAN_MOTION_DOT":0.00080384,"MEAN_MOTION_DDOT":0},{"OBJECT_NAME":"COSMOS 2251 DEB","OBJECT_ID":"1993-036BC","EPOCH":"2026-03-09T15:03:07.178688","MEAN_MOTION":15.0931248,"ECCENTRICITY":0.0027782,"INCLINATION":73.8339,"RA_OF_ASC_NODE":121.9492,"ARG_OF_PERICENTER":197.5511,"MEAN_ANOMALY":285.2146,"EPHEMERIS_TYPE":0,"CLASSIFICATION_TYPE":"U","NORAD_CAT_ID":33811,"ELEMENT_SET_NO":999,"REV_AT_EPOCH":91327,"BSTAR":0.0014101,"MEAN_MOTION_DOT":0.00022722,"MEAN_MOTION_DDOT":0}]
